{
  "type": "FeatureCollection",
  "features": [
    {
      "type": "Feature",
      "properties": {
        "norad_id": 41772,
        "name": "SKYSAT-C5",
        "group": "resource",
        "lat": -55.17345142412179,
        "lon": -165.4398698787625,
        "alt_km": 467.376285942154,
        "timestamp": "2025-12-06T20:37:55.716495+00:00",
        "meta_object_name": "SKYSAT-C5",
        "meta_object_id": "2016-058C",
        "meta_epoch": "2025-12-06T10:13:28.362144",
        "meta_mean_motion": 15.3548683,
        "meta_eccentricity": 0.00026781,
        "meta_inclination": 97.0763,
        "meta_ra_of_asc_node": 24.4294,
        "meta_arg_of_pericenter": 119.642,
        "meta_mean_anomaly": 240.5092,
        "meta_ephemeris_type": 0,
        "meta_classification_type": "U",
        "meta_norad_cat_id": 41772,
        "meta_element_set_no": 999,
        "meta_rev_at_epoch": 51419,
        "meta_bstar": 0.00051444756,
        "meta_mean_motion_dot": 0.00017685,
        "meta_mean_motion_ddot": 0,
        "tle_line1": "1 41772U 16058C   25340.42602271  .00017685  00000+0  51445-3 0  9997",
        "tle_line2": "2 41772  97.0763  24.4294 0002678 119.6420 240.5092 15.35486830514191"
      },
      "geometry": {
        "type": "Point",
        "coordinates": [
          -165.4398698787625,
          -55.17345142412179
        ]
      }
    },
    {
      "type": "Feature",
      "properties": {
        "norad_id": 41773,
        "name": "SKYSAT-C2",
        "group": "resource",
        "lat": -25.9222927864349,
        "lon": -177.80520846839008,
        "alt_km": 463.56956597507906,
        "timestamp": "2025-12-06T20:37:55.716506+00:00",
        "meta_object_name": "SKYSAT-C2",
        "meta_object_id": "2016-058D",
        "meta_epoch": "2025-12-06T15:03:05.512896",
        "meta_mean_motion": 15.37067321,
        "meta_eccentricity": 0.000482,
        "meta_inclination": 97.0359,
        "meta_ra_of_asc_node": 5.4138,
        "meta_arg_of_pericenter": 50.0796,
        "meta_mean_anomaly": 310.0873,
        "meta_ephemeris_type": 0,
        "meta_classification_type": "U",
        "meta_norad_cat_id": 41773,
        "meta_element_set_no": 999,
        "meta_rev_at_epoch": 51542,
        "meta_bstar": 0.00050616623,
        "meta_mean_motion_dot": 0.00018311,
        "meta_mean_motion_ddot": 0,
        "tle_line1": "1 41773U 16058D   25340.62714714  .00018311  00000+0  50617-3 0  9993",
        "tle_line2": "2 41773  97.0359   5.4138 0004820  50.0796 310.0873 15.37067321515423"
      },
      "geometry": {
        "type": "Point",
        "coordinates": [
          -177.80520846839008,
          -25.9222927864349
        ]
      }
    },
    {
      "type": "Feature",
      "properties": {
        "norad_id": 41774,
        "name": "SKYSAT-C3",
        "group": "resource",
        "lat": -64.369788885941,
        "lon": -179.80531205410998,
        "alt_km": 442.08397565818996,
        "timestamp": "2025-12-06T20:37:55.716516+00:00",
        "meta_object_name": "SKYSAT-C3",
        "meta_object_id": "2016-058E",
        "meta_epoch": "2025-12-06T14:54:26.640288",
        "meta_mean_motion": 15.44085474,
        "meta_eccentricity": 0.00014956,
        "meta_inclination": 96.9301,
        "meta_ra_of_asc_node": 14.6535,
        "meta_arg_of_pericenter": 104.7782,
        "meta_mean_anomaly": 255.3634,
        "meta_ephemeris_type": 0,
        "meta_classification_type": "U",
        "meta_norad_cat_id": 41774,
        "meta_element_set_no": 999,
        "meta_rev_at_epoch": 51631,
        "meta_bstar": 0.00060121172,
        "meta_mean_motion_dot": 0.00027459,
        "meta_mean_motion_ddot": 0,
        "tle_line1": "1 41774U 16058E   25340.62114167  .00027459  00000+0  60121-3 0  9994",
        "tle_line2": "2 41774  96.9301  14.6535 0001495 104.7782 255.3634 15.44085474516311"
      },
      "geometry": {
        "type": "Point",
        "coordinates": [
          -179.80531205410998,
          -64.369788885941
        ]
      }
    },
    {
      "type": "Feature",
      "properties": {
        "norad_id": 41785,
        "name": "ALSAT 1B",
        "group": "resource",
        "lat": -8.842367677272351,
        "lon": 171.6842271214673,
        "alt_km": 655.8362333121659,
        "timestamp": "2025-12-06T20:37:55.716528+00:00",
        "meta_object_name": "ALSAT 1B",
        "meta_object_id": "2016-059C",
        "meta_epoch": "2025-12-06T14:53:02.560992",
        "meta_mean_motion": 14.72065917,
        "meta_eccentricity": 0.00105398,
        "meta_inclination": 97.7816,
        "meta_ra_of_asc_node": 352.674,
        "meta_arg_of_pericenter": 121.1534,
        "meta_mean_anomaly": 239.0709,
        "meta_ephemeris_type": 0,
        "meta_classification_type": "U",
        "meta_norad_cat_id": 41785,
        "meta_element_set_no": 999,
        "meta_rev_at_epoch": 49224,
        "meta_bstar": 0.00015111142,
        "meta_mean_motion_dot": 9.03e-06,
        "meta_mean_motion_ddot": 0,
        "tle_line1": "1 41785U 16059C   25340.62016853  .00000903  00000+0  15111-3 0  9994",
        "tle_line2": "2 41785  97.7816 352.6740 0010539 121.1534 239.0709 14.72065917492240"
      },
      "geometry": {
        "type": "Point",
        "coordinates": [
          171.6842271214673,
          -8.842367677272351
        ]
      }
    },
    {
      "type": "Feature",
      "properties": {
        "norad_id": 41787,
        "name": "PATHFINDER 1",
        "group": "resource",
        "lat": 7.301919061779412,
        "lon": -17.101960847621935,
        "alt_km": 672.189970642391,
        "timestamp": "2025-12-06T20:37:55.716542+00:00",
        "meta_object_name": "PATHFINDER 1",
        "meta_object_id": "2016-059E",
        "meta_epoch": "2025-12-06T14:03:07.446240",
        "meta_mean_motion": 14.67304824,
        "meta_eccentricity": 0.00300327,
        "meta_inclination": 97.8138,
        "meta_ra_of_asc_node": 343.6448,
        "meta_arg_of_pericenter": 99.8924,
        "meta_mean_anomaly": 260.5674,
        "meta_ephemeris_type": 0,
        "meta_classification_type": "U",
        "meta_norad_cat_id": 41787,
        "meta_element_set_no": 999,
        "meta_rev_at_epoch": 49146,
        "meta_bstar": 0.00027378617,
        "meta_mean_motion_dot": 1.509e-05,
        "meta_mean_motion_ddot": 0,
        "tle_line1": "1 41787U 16059E   25340.58550285  .00001509  00000+0  27379-3 0  9995",
        "tle_line2": "2 41787  97.8138 343.6448 0030032  99.8924 260.5674 14.67304824491469"
      },
      "geometry": {
        "type": "Point",
        "coordinates": [
          -17.101960847621935,
          7.301919061779412
        ]
      }
    },
    {
      "type": "Feature",
      "properties": {
        "norad_id": 41790,
        "name": "SCATSAT 1",
        "group": "resource",
        "lat": 64.18479131748286,
        "lon": -125.31727217416078,
        "alt_km": 593.1725679104256,
        "timestamp": "2025-12-06T20:37:55.716554+00:00",
        "meta_object_name": "SCATSAT 1",
        "meta_object_id": "2016-059H",
        "meta_epoch": "2025-12-06T15:14:40.981056",
        "meta_mean_motion": 14.78905199,
        "meta_eccentricity": 0.0055995,
        "meta_inclination": 98.1471,
        "meta_ra_of_asc_node": 37.2296,
        "meta_arg_of_pericenter": 147.3077,
        "meta_mean_anomaly": 213.162,
        "meta_ephemeris_type": 0,
        "meta_classification_type": "U",
        "meta_norad_cat_id": 41790,
        "meta_element_set_no": 999,
        "meta_rev_at_epoch": 7312,
        "meta_bstar": 0.00044817585,
        "meta_mean_motion_dot": 3.335e-05,
        "meta_mean_motion_ddot": 0,
        "tle_line1": "1 41790U 16059H   25340.63519654  .00003335  00000+0  44818-3 0  9996",
        "tle_line2": "2 41790  98.1471  37.2296 0055995 147.3077 213.1620 14.78905199 73125"
      },
      "geometry": {
        "type": "Point",
        "coordinates": [
          -125.31727217416078,
          64.18479131748286
        ]
      }
    },
    {
      "type": "Feature",
      "properties": {
        "norad_id": 41875,
        "name": "GOKTURK 1A",
        "group": "resource",
        "lat": -0.91748979076504,
        "lon": 53.17190325582332,
        "alt_km": 687.4897311331133,
        "timestamp": "2025-12-06T20:37:55.716565+00:00",
        "meta_object_name": "GOKTURK 1A",
        "meta_object_id": "2016-073A",
        "meta_epoch": "2025-12-06T14:52:59.467872",
        "meta_mean_motion": 14.62768822,
        "meta_eccentricity": 0.00012337,
        "meta_inclination": 98.1436,
        "meta_ra_of_asc_node": 233.067,
        "meta_arg_of_pericenter": 82.7016,
        "meta_mean_anomaly": 277.4326,
        "meta_ephemeris_type": 0,
        "meta_classification_type": "U",
        "meta_norad_cat_id": 41875,
        "meta_element_set_no": 999,
        "meta_rev_at_epoch": 48067,
        "meta_bstar": 0.00021714022,
        "meta_mean_motion_dot": 1.06e-05,
        "meta_mean_motion_ddot": 0,
        "tle_line1": "1 41875U 16073A   25340.62013273  .00001060  00000+0  21714-3 0  9994",
        "tle_line2": "2 41875  98.1436 233.0670 0001233  82.7016 277.4326 14.62768822480674"
      },
      "geometry": {
        "type": "Point",
        "coordinates": [
          53.17190325582332,
          -0.91748979076504
        ]
      }
    }
  ]
}